STARLINK-4493           
1 53533U 22101G   26027.66286358  .00001107  00000+0  87636-4 0  9998
2 53533  53.2147 258.2882 0001410  94.4540 265.6614 15.08839302189973
STARLINK-4138           
1 53535U 22101J   26028.00003472  .00024441  00000+0  15489-2 0  9994
2 53535  53.2160 256.7863 0001371  85.6353 326.9240 15.08828003  5814
STARLINK-4053           
1 53536U 22101K   26026.64073553  .00001313  00000+0  10055-3 0  9998
2 53536  53.2159 252.8109 0001587  85.6004 274.5169 15.08840506189953
STARLINK-4120           
1 53537U 22101L   26027.66014177 -.00000147  00000+0  88888-5 0  9995
2 53537  53.2138 258.2812 0001616  93.2724 266.8453 15.08837745189972
STARLINK-4118           
1 53538U 22101M   26027.80519652  .00826896  36145-3  11385-2 0  9994
2 53538  53.2122 230.9512 0004712 180.7659 179.3369 16.05563781191059
STARLINK-4123           
1 53539U 22101N   26027.65550251  .00000174  00000+0  29018-4 0  9992
2 53539  53.2167 258.3332 0001551  91.0109 269.1061 15.08841347189979
STARLINK-4486           
1 53540U 22101P   26027.60224264  .00000090  00000+0  23756-4 0  9991
2 53540  53.2178 248.9286 0001125  94.2378 265.8743 15.08826526190789
STARLINK-4485           
1 53541U 22101Q   26027.91310236  .00002460  00000+0  17258-3 0  9993
2 53541  53.2148 257.1784 0001310  85.3547 274.7595 15.08846157190705
STARLINK-4489           
1 53542U 22101R   26027.62698364 -.00000169  00000+0  74538-5 0  9994
2 53542  53.2160 248.4624 0001099  73.3234 286.7878 15.08835800190799
STARLINK-4297           
1 53543U 22101S   26027.17803315  .00003388  00000+0  23093-3 0  9992
2 53543  53.2153 250.5407 0001070  79.8759 280.2353 15.08827215190728
STARLINK-4303           
1 53544U 22101T   26027.61962781  .00005141  00000+0  34078-3 0  9999
2 53544  53.2162 248.4937 0001336  90.3987 269.7158 15.08851162190777
STARLINK-4475           
1 53545U 22101U   26026.63706758  .00000996  00000+0  80635-4 0  9995
2 53545  53.2172 252.9042 0001009  66.8898 293.2200 15.08840493190643
STARLINK-4477           
1 53546U 22101V   26027.56896669  .00000847  00000+0  71290-4 0  9992
2 53546  53.2157 238.2508 0001256  86.2719 273.8417 15.08843150190246
STARLINK-4474           
1 53547U 22101W   26027.75577987  .00003637  00000+0  24660-3 0  9991
2 53547  53.2173 247.8806 0001016  99.5556 260.5551 15.08824427190790
STARLINK-4513           
1 53548U 22101X   26027.93978433 -.00000160  00000+0  80050-5 0  9999
2 53548  53.2154 247.0567 0001318  90.0881 270.0262 15.08841268190155
STARLINK-4518           
1 53550U 22101Z   26027.74741351  .00106113  16268-4  17448-3 0  9999
2 53550  53.2118 233.0835 0004288 168.7685 191.3444 16.03024850190990
