[{"OBJECT_NAME":"STARLINK-4493","OBJECT_ID":"2022-101G","EPOCH":"2026-01-27T15:54:31.413312","MEAN_MOTION":15.08839302,"ECCENTRICITY":0.000141,"INCLINATION":53.2147,"RA_OF_ASC_NODE":258.2882,"ARG_OF_PERICENTER":94.454,"MEAN_ANOMALY":265.6614,"EPHEMERIS_TYPE":0,"CLASSIFICATION_TYPE":"U","NORAD_CAT_ID":53533,"ELEMENT_SET_NO":999,"REV_AT_EPOCH":18997,"BSTAR":8.7636e-5,"MEAN_MOTION_DOT":1.107e-5,"MEAN_MOTION_DDOT":0},{"OBJECT_NAME":"STARLINK-4138","OBJECT_ID":"2022-101J","EPOCH":"2026-01-28T00:00:02.999808","MEAN_MOTION":15.08828003,"ECCENTRICITY":0.00013716,"INCLINATION":53.216,"RA_OF_ASC_NODE":256.7863,"ARG_OF_PERICENTER":85.6353,"MEAN_ANOMALY":326.924,"EPHEMERIS_TYPE":0,"CLASSIFICATION_TYPE":"U","NORAD_CAT_ID":53535,"ELEMENT_SET_NO":999,"REV_AT_EPOCH":581,"BSTAR":0.0015489248,"MEAN_MOTION_DOT":0.00024441,"MEAN_MOTION_DDOT":0},{"OBJECT_NAME":"STARLINK-4053","OBJECT_ID":"2022-101K","EPOCH":"2026-01-26T15:22:39.549792","MEAN_MOTION":15.08840506,"ECCENTRICITY":0.0001587,"INCLINATION":53.2159,"RA_OF_ASC_NODE":252.8109,"ARG_OF_PERICENTER":85.6004,"MEAN_ANOMALY":274.5169,"EPHEMERIS_TYPE":0,"CLASSIFICATION_TYPE":"U","NORAD_CAT_ID":53536,"ELEMENT_SET_NO":999,"REV_AT_EPOCH":18995,"BSTAR":0.00010055,"MEAN_MOTION_DOT":1.313e-5,"MEAN_MOTION_DDOT":0},{"OBJECT_NAME":"STARLINK-4120","OBJECT_ID":"2022-101L","EPOCH":"2026-01-27T15:50:36.248928","MEAN_MOTION":15.08837745,"ECCENTRICITY":0.0001616,"INCLINATION":53.2138,"RA_OF_ASC_NODE":258.2812,"ARG_OF_PERICENTER":93.2724,"MEAN_ANOMALY":266.8453,"EPHEMERIS_TYPE":0,"CLASSIFICATION_TYPE":"U","NORAD_CAT_ID":53537,"ELEMENT_SET_NO":999,"REV_AT_EPOCH":18997,"BSTAR":8.8888e-6,"MEAN_MOTION_DOT":-1.47e-6,"MEAN_MOTION_DDOT":0},{"OBJECT_NAME":"STARLINK-4118","OBJECT_ID":"2022-101M","EPOCH":"2026-01-27T19:19:28.979328","MEAN_MOTION":16.05563781,"ECCENTRICITY":0.0004712,"INCLINATION":53.2122,"RA_OF_ASC_NODE":230.9512,"ARG_OF_PERICENTER":180.7659,"MEAN_ANOMALY":179.3369,"EPHEMERIS_TYPE":0,"CLASSIFICATION_TYPE":"U","NORAD_CAT_ID":53538,"ELEMENT_SET_NO":999,"REV_AT_EPOCH":19105,"BSTAR":0.0011384533,"MEAN_MOTION_DOT":0.00826896,"MEAN_MOTION_DDOT":0.00036145202},{"OBJECT_NAME":"STARLINK-4123","OBJECT_ID":"2022-101N","EPOCH":"2026-01-27T15:43:55.416864","MEAN_MOTION":15.08841347,"ECCENTRICITY":0.0001551,"INCLINATION":53.2167,"RA_OF_ASC_NODE":258.3332,"ARG_OF_PERICENTER":91.0109,"MEAN_ANOMALY":269.1061,"EPHEMERIS_TYPE":0,"CLASSIFICATION_TYPE":"U","NORAD_CAT_ID":53539,"ELEMENT_SET_NO":999,"REV_AT_EPOCH":18997,"BSTAR":2.9018e-5,"MEAN_MOTION_DOT":1.74e-6,"MEAN_MOTION_DDOT":0},{"OBJECT_NAME":"STARLINK-4486","OBJECT_ID":"2022-101P","EPOCH":"2026-01-27T14:27:13.764096","MEAN_MOTION":15.08826526,"ECCENTRICITY":0.0001125,"INCLINATION":53.2178,"RA_OF_ASC_NODE":248.9286,"ARG_OF_PERICENTER":94.2378,"MEAN_ANOMALY":265.8743,"EPHEMERIS_TYPE":0,"CLASSIFICATION_TYPE":"U","NORAD_CAT_ID":53540,"ELEMENT_SET_NO":999,"REV_AT_EPOCH":19078,"BSTAR":2.3756e-5,"MEAN_MOTION_DOT":9.0e-7,"MEAN_MOTION_DDOT":0},{"OBJECT_NAME":"STARLINK-4485","OBJECT_ID":"2022-101Q","EPOCH":"2026-01-27T21:54:52.043904","MEAN_MOTION":15.08846157,"ECCENTRICITY":0.00013107,"INCLINATION":53.2148,"RA_OF_ASC_NODE":257.1784,"ARG_OF_PERICENTER":85.3547,"MEAN_ANOMALY":274.7595,"EPHEMERIS_TYPE":0,"CLASSIFICATION_TYPE":"U","NORAD_CAT_ID":53541,"ELEMENT_SET_NO":999,"REV_AT_EPOCH":19070,"BSTAR":0.00017257933,"MEAN_MOTION_DOT":2.46e-5,"MEAN_MOTION_DDOT":0},{"OBJECT_NAME":"STARLINK-4489","OBJECT_ID":"2022-101R","EPOCH":"2026-01-27T15:02:51.386496","MEAN_MOTION":15.088358,"ECCENTRICITY":0.0001099,"INCLINATION":53.216,"RA_OF_ASC_NODE":248.4624,"ARG_OF_PERICENTER":73.3234,"MEAN_ANOMALY":286.7878,"EPHEMERIS_TYPE":0,"CLASSIFICATION_TYPE":"U","NORAD_CAT_ID":53542,"ELEMENT_SET_NO":999,"REV_AT_EPOCH":19079,"BSTAR":7.4538e-6,"MEAN_MOTION_DOT":-1.69e-6,"MEAN_MOTION_DDOT":0},{"OBJECT_NAME":"STARLINK-4297","OBJECT_ID":"2022-101S","EPOCH":"2026-01-27T04:16:22.064160","MEAN_MOTION":15.08827215,"ECCENTRICITY":0.00010706,"INCLINATION":53.2153,"RA_OF_ASC_NODE":250.5407,"ARG_OF_PERICENTER":79.8759,"MEAN_ANOMALY":280.2353,"EPHEMERIS_TYPE":0,"CLASSIFICATION_TYPE":"U","NORAD_CAT_ID":53543,"ELEMENT_SET_NO":999,"REV_AT_EPOCH":19072,"BSTAR":0.00023092977,"MEAN_MOTION_DOT":3.388e-5,"MEAN_MOTION_DDOT":0},{"OBJECT_NAME":"STARLINK-4303","OBJECT_ID":"2022-101T","EPOCH":"2026-01-27T14:52:15.842784","MEAN_MOTION":15.08851162,"ECCENTRICITY":0.0001336,"INCLINATION":53.2162,"RA_OF_ASC_NODE":248.4937,"ARG_OF_PERICENTER":90.3987,"MEAN_ANOMALY":269.7158,"EPHEMERIS_TYPE":0,"CLASSIFICATION_TYPE":"U","NORAD_CAT_ID":53544,"ELEMENT_SET_NO":999,"REV_AT_EPOCH":19077,"BSTAR":0.00034078,"MEAN_MOTION_DOT":5.141e-5,"MEAN_MOTION_DDOT":0},{"OBJECT_NAME":"STARLINK-4475","OBJECT_ID":"2022-101U","EPOCH":"2026-01-26T15:17:22.638912","MEAN_MOTION":15.08840493,"ECCENTRICITY":0.00010097,"INCLINATION":53.2172,"RA_OF_ASC_NODE":252.9042,"ARG_OF_PERICENTER":66.8898,"MEAN_ANOMALY":293.22,"EPHEMERIS_TYPE":0,"CLASSIFICATION_TYPE":"U","NORAD_CAT_ID":53545,"ELEMENT_SET_NO":999,"REV_AT_EPOCH":19064,"BSTAR":8.0635483e-5,"MEAN_MOTION_DOT":9.96e-6,"MEAN_MOTION_DDOT":0},{"OBJECT_NAME":"STARLINK-4477","OBJECT_ID":"2022-101V","EPOCH":"2026-01-27T13:39:18.722016","MEAN_MOTION":15.0884315,"ECCENTRICITY":0.0001256,"INCLINATION":53.2157,"RA_OF_ASC_NODE":238.2508,"ARG_OF_PERICENTER":86.2719,"MEAN_ANOMALY":273.8417,"EPHEMERIS_TYPE":0,"CLASSIFICATION_TYPE":"U","NORAD_CAT_ID":53546,"ELEMENT_SET_NO":999,"REV_AT_EPOCH":19024,"BSTAR":7.129e-5,"MEAN_MOTION_DOT":8.47e-6,"MEAN_MOTION_DDOT":0},{"OBJECT_NAME":"STARLINK-4474","OBJECT_ID":"2022-101W","EPOCH":"2026-01-27T18:08:19.380768","MEAN_MOTION":15.08824427,"ECCENTRICITY":0.00010165,"INCLINATION":53.2173,"RA_OF_ASC_NODE":247.8806,"ARG_OF_PERICENTER":99.5556,"MEAN_ANOMALY":260.5551,"EPHEMERIS_TYPE":0,"CLASSIFICATION_TYPE":"U","NORAD_CAT_ID":53547,"ELEMENT_SET_NO":999,"REV_AT_EPOCH":19079,"BSTAR":0.00024659502,"MEAN_MOTION_DOT":3.637e-5,"MEAN_MOTION_DDOT":0},{"OBJECT_NAME":"STARLINK-4513","OBJECT_ID":"2022-101X","EPOCH":"2026-01-27T22:33:17.366112","MEAN_MOTION":15.08841268,"ECCENTRICITY":0.00013185,"INCLINATION":53.2154,"RA_OF_ASC_NODE":247.0567,"ARG_OF_PERICENTER":90.0881,"MEAN_ANOMALY":270.0262,"EPHEMERIS_TYPE":0,"CLASSIFICATION_TYPE":"U","NORAD_CAT_ID":53548,"ELEMENT_SET_NO":999,"REV_AT_EPOCH":19015,"BSTAR":8.005036e-6,"MEAN_MOTION_DOT":-1.6e-6,"MEAN_MOTION_DDOT":0},{"OBJECT_NAME":"STARLINK-4518","OBJECT_ID":"2022-101Z","EPOCH":"2026-01-27T17:56:16.527264","MEAN_MOTION":16.0302485,"ECCENTRICITY":0.00042886,"INCLINATION":53.2118,"RA_OF_ASC_NODE":233.0835,"ARG_OF_PERICENTER":168.7685,"MEAN_ANOMALY":191.3444,"EPHEMERIS_TYPE":0,"CLASSIFICATION_TYPE":"U","NORAD_CAT_ID":53550,"ELEMENT_SET_NO":999,"REV_AT_EPOCH":19099,"BSTAR":0.00017448488,"MEAN_MOTION_DOT":0.00106113,"MEAN_MOTION_DDOT":1.6268371e-5}]
